SL-8 R/B                
1 21088U 91006B   26082.20090185  .00000112  00000+0  97281-4 0  9992
2 21088  82.9454 160.0014 0022222   1.1045  27.9443 13.77496306765931
OKEAN-3                 
1 21397U 91039A   26082.24368337  .00002872  00000+0  20082-3 0  9991
2 21397  82.5172 323.7128 0012560 286.4022  73.5824 15.04887965867073
COSMOS 2151             
1 21422U 91042A   26082.22395047  .00002293  00000+0  18131-3 0  9999
2 21422  82.4940  70.6162 0013035  22.1002 338.0781 15.00157808865229
SL-14 R/B               
1 21423U 91042B   26082.06027095  .00000536  00000+0  64819-4 0  9990
2 21423  82.4947 207.6460 0016717 192.4401 167.6403 14.81842981855052
ERS-1                   
1 21574U 91050A   26082.04340677  .00000320  00000+0  11685-3 0  9991
2 21574  98.7871 100.6132 0032381 160.8678 199.3733 14.39459111817657
ARIANE 40 R/B           
1 21610U 91050F   26082.13193363  .00000299  00000+0  10202-3 0  9999
2 21610  98.1984 133.8622 0003879  51.6014 308.5525 14.42902894820933
INTERCOSMOS 25          
1 21819U 91086A   26082.11319585  .00001837  00000+0  35296-3 0  9992
2 21819  82.6022 301.8943 1486740  88.0096 288.9953 12.12045677498316
SL-8 R/B                
1 21876U 92008B   26082.26973390  .00000004  00000+0 -11747-4 0  9998
2 21876  82.9223 257.6732 0035927  96.6402  76.1748 13.75969561711281
SL-8 R/B                
1 21938U 92020B   26082.22155334  .00000038  00000+0  23454-4 0  9991
2 21938  82.9315 143.7152 0027602 259.1994 161.1255 13.75550353702997
USA 81                  
1 21949U 92023A   26082.14132505  .00000165  00000+0  53620-4 0  9991
2 21949  85.0058 123.6792 0002026  69.0851 291.0559 14.32372157 96711
COSMOS 2219             
1 22219U 92076A   26082.17343371 -.00000155  00000+0 -56651-4 0  9996
2 22219  71.0637 349.8839 0018195 187.7471 172.3374 14.14092725720286
SL-16 R/B               
1 22220U 92076B   26082.25137950  .00000219  00000+0  13283-3 0  9993
2 22220  71.0007 159.8087 0010626  71.1237 348.2856 14.16862832723750
COSMOS 2221             
1 22236U 92080A   26082.21332025  .00002108  00000+0  18411-3 0  9998
2 22236  82.5002 266.1230 0015144 142.7903 217.4372 14.96253423782816
SL-16 R/B               
1 22285U 92093B   26082.16683237  .00000352  00000+0  20482-3 0  9994
2 22285  71.0237 335.9762 0006335 280.2889  79.7520 14.15450887715062
COSMOS 2228             
1 22286U 92094A   26082.22065924  .00002898  00000+0  24742-3 0  9990
2 22286  82.5181 224.3539 0016631 255.1700 104.7680 14.97257532778083
SL-16 R/B               
1 22566U 93016B   26082.20857032 -.00000211  00000+0 -83872-4 0  9992
2 22566  71.0081 186.7894 0012358 296.5502  63.4353 14.15306327704086
COSMOS 2242             
1 22626U 93024A   26081.94124140  .00002070  00000+0  17917-3 0  9994
2 22626  82.5153 254.0374 0014917 260.1161  99.8378 14.96602023782372
